STARLINK-31863          
1 59789U 24093H   24164.25001157 -.00023244  00000+0 -39142-3 0  9992
2 59789  42.9995 227.5524 0001389 239.1526 215.5216 15.50588645  5165
STARLINK-31873          
1 59790U 24093J   24164.25001157 -.00022838  00000+0 -38447-3 0  9999
2 59790  42.9996 227.5422 0001572 239.7431 218.7633 15.50588362  5164
STARLINK-31865          
1 59791U 24093K   24164.16667824  .00008821  00000+0  15605-3 0  9994
2 59791  42.9995 228.0240 0001350 244.0859 110.6142 15.50570845  5156
STARLINK-31893          
1 59792U 24093L   24164.25001157 -.00022846  00000+0 -38459-3 0  9993
2 59792  42.9995 227.5325 0001659 246.1389 216.1997 15.50588346  5175
STARLINK-31901          
1 59793U 24093M   24164.25001157 -.00022591  00000+0 -38023-3 0  9998
2 59793  42.9995 227.5267 0001519 241.6859 222.5690 15.50588204  5161
STARLINK-31823          
1 59794U 24093N   24164.25001157 -.00022219  00000+0 -37386-3 0  9997
2 59794  42.9995 227.5224 0001457 230.2863 235.8846 15.50587985  5160
STARLINK-31916          
1 59795U 24093P   24164.25001157 -.00022253  00000+0 -37444-3 0  9991
2 59795  42.9995 227.5175 0001540 232.0424 236.0445 15.50588052  5166
STARLINK-31907          
1 59797U 24093R   24164.25001157 -.00022480  00000+0 -37834-3 0  9998
2 59797  42.9995 227.5121 0001358 233.8524 236.1507 15.50588045  5113
STARLINK-31687          
1 59798U 24093S   24164.25001157 -.00021964  00000+0 -36949-3 0  9991
2 59798  42.9995 227.4727 0001589 249.0073 236.3245 15.50587684  5163
STARLINK-31810          
1 59799U 24093T   24164.25001157 -.00021762  00000+0 -36603-3 0  9995
2 59799  42.9995 227.4876 0001616 243.6781 235.9055 15.50587677  5162
STARLINK-31812          
1 59800U 24093U   24164.25001157 -.00021808  00000+0 -36682-3 0  9996
2 59800  42.9995 227.5026 0001578 243.2828 230.5524 15.50587695  5238
STARLINK-31815          
1 59801U 24093V   24164.25001157 -.00022199  00000+0 -37352-3 0  9996
2 59801  42.9995 227.4978 0001563 235.2863 240.4650 15.50587959  5163
STARLINK-31814          
1 59802U 24093W   24164.25001157  .00082935  00000+0  88064-3 0  9995
2 59802  42.9979 227.2811 0001656 273.9296 290.6612 15.63093867  5161
STARLINK-31794          
1 59803U 24093X   24164.25001157 -.00021966  00000+0 -36953-3 0  9995
2 59803  42.9995 227.4780 0001536 237.8639 245.5519 15.50587694  5239
STARLINK-31824          
1 59804U 24093Y   24164.25001157 -.00021991  00000+0 -36996-3 0  9991
2 59804  42.9994 227.4835 0001304 234.7522 246.7473 15.50587692  5117
2024-094A               
1 59805U 24094A   24164.22853178  .00016572  00000+0  69618-3 0  9992
2 59805  97.4711 235.0344 0009086 194.8632 165.2339 15.23477036  3511
2024-094B               
1 59806U 24094B   24164.21197092  .00018353  00000+0  73899-3 0  9993
2 59806  97.4706 235.0550 0011897 201.7214 158.3520 15.24857165  3502
2024-094C               
1 59807U 24094C   24164.14983228  .00017974  00000+0  72892-3 0  9990
2 59807  97.4722 234.9893 0012108 196.7142 163.3698 15.24619353  3493
2024-094D               
1 59808U 24094D   24164.17017216  .00015056  00000+0  65440-3 0  9999
2 59808  97.4703 234.9576 0007605 234.3430 125.7098 15.22353959  3497
2024-092K               
1 59809U 24092K   24164.15840830  .00009154  00000+0  59602-3 0  9997
2 59809  97.5987 276.0410 0013517 186.5802 173.5250 15.08095760  3439
2024-095A               
1 59810U 24095A   24164.19767174  .00008927  00000+0  52641-3 0  9998
2 59810  97.6007 239.4505 0010989 188.7439 171.3602 15.11750428  3332
2024-095B               
1 59811U 24095B   24164.19823890  .00003773  00000+0  22583-3 0  9993
2 59811  97.6015 239.4547 0010663 191.6881 168.4103 15.11598081  3339
2024-095C               
1 59812U 24095C   24164.19276644  .00013741  00000+0  79794-3 0  9995
2 59812  97.5997 239.4510 0010197 194.9115 165.1816 15.12194906  3330
2024-095D               
1 59813U 24095D   24164.18927043  .00013880  00000+0  80031-3 0  9991
2 59813  97.5999 239.4574 0009206 193.8595 166.2384 15.12457474  3336
STARLINK-31947          
1 59835U 24097A   24164.16667824 -.01229320  00000+0 -22271-1 0  9994
2 59835  43.0000 294.9736 0001422 276.9906 232.8962 15.51535160  4386
STARLINK-31929          
1 59836U 24097B   24164.16667824 -.01225113  00000+0 -22191-1 0  9992
2 59836  42.9999 294.9706 0001396 279.1544 232.1681 15.51530817  4332
STARLINK-31927          
1 59837U 24097C   24164.16667824 -.01220563  00000+0 -22104-1 0  9991
2 59837  43.0000 294.9667 0001446 277.5817 235.1767 15.51526137  4333
STARLINK-31855          
1 59838U 24097D   24164.16667824 -.01272813  00000+0 -23135-1 0  9992
2 59838  42.9999 294.9630 0001720 282.2550 231.9376 15.51537651  4334
STARLINK-31887          
1 59839U 24097E   24164.25001157 -.00672344  00000+0 -12264-1 0  9997
2 59839  42.9997 294.4706 0001251 280.7210 340.9566 15.51051321  4345
STARLINK-31925          
1 59840U 24097F   24164.16667824 -.01222794  00000+0 -22155-1 0  9999
2 59840  43.0000 294.9559 0001426 284.0312 233.0335 15.51517967  4326
STARLINK-31852          
1 59841U 24097G   24164.16667824 -.01256855  00000+0 -22829-1 0  9993
2 59841  43.0001 294.9525 0001527 280.9704 237.5302 15.51523293  4381
STARLINK-31906          
1 59842U 24097H   24164.16667824 -.01213489  00000+0 -21977-1 0  9993
2 59842  43.0000 294.9475 0001452 281.5526 238.3837 15.51509119  4373
STARLINK-31857          
1 59843U 24097J   24164.25001157 -.00657505  00000+0 -11982-1 0  9990
2 59843  42.9997 294.4562 0001271 284.5314 342.8896 15.51024444  4397
STARLINK-31851          
1 59844U 24097K   24164.16667824 -.01202791  00000+0 -21773-1 0  9993
2 59844  42.9999 294.9396 0001398 278.1101 244.6986 15.51499022  4378
STARLINK-31903          
1 59845U 24097L   24164.16667824 -.01233841  00000+0 -22386-1 0  9995
2 59845  43.0000 294.9370 0001491 277.5257 246.7183 15.51503650  4370
STARLINK-31922          
1 59846U 24097M   24164.16667824 -.01227926  00000+0 -22272-1 0  9997
2 59846  43.0000 294.9332 0001550 283.9105 241.7696 15.51498450  4339
STARLINK-31889          
1 59847U 24097N   24164.16667824 -.01187494  00000+0 -21480-1 0  9993
2 59847  43.0000 294.9290 0001435 284.2431 242.8722 15.51485854  4337
STARLINK-31859          
1 59848U 24097P   24164.16667824 -.01216805  00000+0 -22059-1 0  9996
2 59848  43.0000 294.9256 0001412 279.0506 249.5007 15.51489179  4323
STARLINK-31895          
1 59849U 24097Q   24164.16667824 -.01178865  00000+0 -21315-1 0  9994
2 59849  43.0000 294.9217 0001562 275.7754 254.2111 15.51477499  4326
STARLINK-31899          
1 59850U 24097R   24164.16667824 -.01172861  00000+0 -21201-1 0  9990
2 59850  43.0000 294.9176 0001466 279.6617 251.7609 15.51472172  4323
STARLINK-31896          
1 59851U 24097S   24164.16667824 -.01150251  00000+0 -21098-1 0  9994
2 59851  43.0000 294.9140 0001442 282.9692 249.8890 15.51467568  4388
STARLINK-31897          
1 59852U 24097T   24164.16667824 -.01147121  00000+0 -21036-1 0  9999
2 59852  43.0000 294.9103 0001586 277.1755 257.1181 15.51464115  4338
STARLINK-31892          
1 59853U 24097U   24164.16667824 -.01140307  00000+0 -20903-1 0  9991
2 59853  43.0000 294.9072 0001449 277.2928 258.4373 15.51458049  4331
STARLINK-31891          
1 59854U 24097V   24164.16667824 -.01134734  00000+0 -20794-1 0  9997
2 59854  43.0000 294.9033 0001389 279.1986 257.9674 15.51453032  4376
STARLINK-31882          
1 59855U 24097W   24164.16667824 -.01131348  00000+0 -20727-1 0  9992
2 59855  42.9999 294.8996 0001510 277.9272 260.6738 15.51449725  4386
STARLINK-31691          
1 59856U 24097X   24164.16667824 -.01172259  00000+0 -21205-1 0  9991
2 59856  43.0000 294.8956 0001480 285.1478 254.8896 15.51451300  4329
STARLINK-31569          
1 59857U 24097Y   24164.16667824 -.01121716  00000+0 -20538-1 0  9992
2 59857  43.0001 294.8918 0001574 273.6586 267.8138 15.51440855  4376
STARLINK-31654          
1 59858U 24098A   24164.16667824 -.01747816  00000+0 -24702-1 0  9996
2 59858  43.0004 304.1044 0001707 276.6226  86.1976 15.58760146  4228
STARLINK-31442          
1 59859U 24098B   24164.16667824 -.01730862  00000+0 -15815-1 0  9995
2 59859  43.0010 303.4615 0001610 274.0595 346.8489 15.70106251  3584
STARLINK-31651          
1 59860U 24098C   24164.16667824 -.01747901  00000+0 -24709-1 0  9991
2 59860  43.0003 304.0964 0001680 279.7255  86.0048 15.58754431  3527
STARLINK-31703          
1 59861U 24098D   24164.16667824 -.01746974  00000+0 -24697-1 0  9997
2 59861  43.0004 304.0931 0001734 280.7885  86.3972 15.58751075  3579
STARLINK-31584          
1 59862U 24098E   24164.16667824 -.01747091  00000+0 -24700-1 0  9994
2 59862  43.0004 304.0891 0001875 273.1791  95.4619 15.58748479  3419
STARLINK-31950          
1 59863U 24098F   24164.16667824 -.01748216  00000+0 -24723-1 0  9990
2 59863  43.0003 304.0853 0001594 277.7660  92.3305 15.58745723  3574
STARLINK-31931          
1 59864U 24098G   24164.16667824 -.01748289  00000+0 -24727-1 0  9995
2 59864  43.0003 304.0820 0001590 276.4412  95.1106 15.58742771  3576
STARLINK-31938          
1 59865U 24098H   24164.16667824 -.01749661  00000+0 -24750-1 0  9997
2 59865  43.0004 304.0774 0001748 278.1112  94.8962 15.58739878  4220
STARLINK-31941          
1 59866U 24098J   24164.16667824  .00337159  00000+0  12726-2 0  9991
2 59866  43.0043 303.1980 0006862 324.0077  42.1072 15.86029060  3588
STARLINK-31952          
1 59867U 24098K   24164.16667824 -.01748341  00000+0 -24736-1 0  9997
2 59867  43.0003 304.0707 0001591 276.8548  99.0626 15.58734118  3574
STARLINK-31921          
1 59868U 24098L   24163.73439711  .00150839  17794-4  28328-3 0  9994
2 59868  43.0012 304.1845 0003638 265.7268  94.3195 16.00245321  3535
STARLINK-31760          
1 59869U 24098M   24164.16667824 -.01748687  00000+0 -24746-1 0  9993
2 59869  43.0004 304.0632 0001672 276.5261 102.3016 15.58728568  3576
